AMC-3                   
1 24936U 97050A   26062.00171671 -.00000274  00000+0  00000+0 0  9996
2 24936   7.8863  65.2894 0003449 283.7763 100.3151  1.00272075 51379
NSS-11                  
1 26554U 00059A   26062.12189343  .00000010  00000+0  00000+0 0  9992
2 26554   1.8527  82.6883 0003163 262.4144  35.6562  1.00271535 40227
AMC-6                   
1 26580U 00067A   26062.15392248  .00000073  00000+0  00000+0 0  9992
2 26580   0.0510 312.3900 0003149  26.0566 102.8133  1.00271314 92827
AMC-11                  
1 28252U 04017A   26062.15947694 -.00000065  00000+0  00000+0 0  9992
2 28252   0.0381  78.9391 0003225 267.2816 121.0014  1.00271883 79807
AMC-15                  
1 28446U 04041A   26062.15392248 -.00000104  00000+0  00000+0 0  9997
2 28446   0.0574 294.0067 0002435  54.9452 122.3272  1.00272685 78244
NSS-10                  
1 28526U 05003A   26062.06534172 -.00000265  00000+0  00000+0 0  9997
2 28526   6.1843  71.7369 0003264 273.4397 161.7221  1.00271521 52095
ASTRA 1KR               
1 29055U 06012A   26062.05253104  .00000103  00000+0  00000+0 0  9998
2 29055   0.2002  81.7856 0003462 242.3971 234.5382  1.00271529 44636
ASTRA 1L                
1 31306U 07016A   26062.12333672 -.00000199  00000+0  00000+0 0  9998
2 31306   1.0475  82.4316 0003308 272.2669 186.1361  1.00271355 43922
ASTRA 4A                
1 32299U 07057A   26062.15959362  .00000017  00000+0  00000+0 0  9996
2 32299   0.0555 291.0983 0002467  53.0063 239.0754  1.00273258 50586
ASTRA 1M                
1 33436U 08057A   26062.05253104  .00000104  00000+0  00000+0 0  9998
2 33436   0.0320  58.5261 0000633  12.7946 127.5897  1.00273218 44678
NSS-9                   
1 33749U 09008A   26062.03030856  .00000056  00000+0  00000+0 0  9993
2 33749   0.9872  83.7173 0002192 250.1800  20.8642  1.00272427 62457
SES-7 (PROTOSTAR 2)     
1 34941U 09027A   26061.96609653  .00000000  00000+0  00000+0 0  9996
2 34941   0.0235 126.4490 0001539 180.5422 309.8229  1.00269046 61568
NSS-12                  
1 36032U 09058A   26062.10530860  .00000056  00000+0  00000+0 0  9994
2 36032   0.0082 279.4528 0005059  46.9426 289.3690  1.00271953 59855
SES-1                   
1 36516U 10016A   26062.15392248 -.00000130  00000+0  00000+0 0  9992
2 36516   0.0552 291.0000 0002579  40.9602 143.3604  1.00272384 57977
ASTRA 3B                
1 36581U 10021A   26062.09199326  .00000122  00000+0  00000+0 0  9995
2 36581   1.1939  84.9540 0003036 277.9441 214.5680  1.00271092 57802
SES-3                   
1 37748U 11035A   26062.15392248 -.00000117  00000+0  00000+0 0  9997
2 37748   1.0526  84.3210 0003578 261.0698 127.9260  1.00272138 53535
ASTRA 1N                
1 37775U 11041A   26061.74937667  .00000103  00000+0  00000+0 0  9992
2 37775   0.0673  16.6824 0004062   0.7096  72.0856  1.00273017 43464
SES-2                   
1 37809U 11049A   26062.09073911 -.00000212  00000+0  00000+0 0  9992
2 37809   0.0329  77.2137 0002967 261.7424 127.5488  1.00272689 52906
QUETZSAT 1              
1 37826U 11054A   26062.14280992 -.00000257  00000+0  00000+0 0  9991
2 37826   0.0558 288.6193 0002730  66.9631 139.7262  1.00271493 48814
SES-4                   
1 38087U 12007A   26062.08297990 -.00000184  00000+0  00000+0 0  9998
2 38087   0.0340  62.4216 0002468 291.5293 174.7707  1.00270019 51163
SES-5                   
1 38652U 12036A   26062.15959362  .00000018  00000+0  00000+0 0  9999
2 38652   0.0623 308.3085 0002013  28.3836 246.6545  1.00271204 43398
ASTRA 2F                
1 38778U 12051A   26062.09285993  .00000134  00000+0  00000+0 0  9999
2 38778   0.0759 259.1073 0002673  15.1586 308.1955  1.00273514 40072
SES-6                   
1 39172U 13026A   26062.17210691 -.00000277  00000+0  00000+0 0  9992
2 39172   0.0687 287.3800 0001856  57.1515 197.8407  1.00272357 46662
O3B FM5                 
1 39188U 13031A   26062.09815228 -.00000028  00000+0  00000+0 0  9997
2 39188   0.0974  14.4079 0003340 318.8297  26.7381  5.00116441231728
O3B FM4                 
1 39189U 13031B   26062.01741021 -.00000029  00000+0  00000+0 0  9990
2 39189   0.0555 345.1625 0005039   4.8131  10.0072  5.00115225231734
O3B FM2                 
1 39190U 13031C   26061.68331661 -.00000029  00000+0  00000+0 0  9999
2 39190   0.0567 339.0902 0002843 359.6148  21.2758  5.00115954231787
O3B PFM                 
1 39191U 13031D   26061.69742789 -.00000029  00000+0  00000+0 0  9998
2 39191   0.0664   7.7761 0005130 348.6347   3.5783  5.00116023231340
ASTRA 2E                
1 39285U 13056A   26062.09294661  .00000134  00000+0  00000+0 0  9991
2 39285   0.0678  28.0541 0002196 307.0232 247.7090  1.00271429 45357
SES-8                   
1 39460U 13071A   26061.61318672 -.00000285  00000+0  00000+0 0  9997
2 39460   0.0622 272.7609 0001676  99.9747 103.3736  1.00267709 43374
ASTRA 5B                
1 39617U 14011B   26062.13447653  .00000121  00000+0  00000+0 0  9994
2 39617   0.0936 297.5206 0004207  25.9413 269.3272  1.00270217 43608
O3B FM3                 
1 40079U 14038A   26061.96394142 -.00000029  00000+0  00000+0 0  9999
2 40079   0.0530 353.4674 0000432  43.3172 323.2111  5.00115535207738
O3B FM7                 
1 40080U 14038B   26061.31035470 -.00000029  00000+0  00000+0 0  9996
2 40080   0.0588 348.9474 0004488 339.4059  31.6123  5.00115622212532
O3B FM6                 
1 40081U 14038C   26059.33845883 -.00000028  00000+0  00000+0 0  9992
2 40081   0.0550 351.2998 0002672 345.9055  22.7755  5.00115665212383
O3B FM8                 
1 40082U 14038D   26061.79046471 -.00000029  00000+0  00000+0 0  9993
2 40082   0.0559 350.7420 0002658 353.1323  16.1099  5.00115957212629
O3B FM10                
1 40348U 14083A   26061.81751909 -.00000029  00000+0  00000+0 0  9990
2 40348   0.0434 347.1620 0002687 352.9786  19.8417  5.00115190204578
O3B FM11                
1 40349U 14083B   26061.83024282 -.00000029  00000+0  00000+0 0  9990
2 40349   0.0565   0.5416 0003138 330.0630  29.3705  5.00115568204591
O3B FM12                
1 40350U 14083C   26061.85733976 -.00000029  00000+0  00000+0 0  9991
2 40350   0.0560 359.7962 0002644 337.2000  22.9847  5.00115929204603
O3B FM9                 
1 40351U 14083D   26062.08405927 -.00000028  00000+0  00000+0 0  9999
2 40351   0.0577   0.8097 0002737 339.7312  19.4415  5.00115869204763
ASTRA 2G                
1 40364U 14089A   26062.09285993  .00000000  00000+0  00000+0 0  9998
2 40364   0.0222   6.3417 0004295  20.2642 195.8802  1.00269985 40908
SES-9                   
1 41380U 16013A   26062.03742354 -.00000361  00000+0  00000+0 0  9990
2 41380   0.0419 301.8108 0001356  91.9886 248.7581  1.00270527 36377
SES-10                  
1 42432U 17017A   26062.13725227 -.00000288  00000+0  00000+0 0  9993
2 42432   0.0184  73.9531 0002671 272.0062 157.4447  1.00270236 32696
SES-15                  
1 42709U 17026A   26061.99044998  .00000044  00000+0  00000+0 0  9991
2 42709   0.0287 284.1567 0000710  54.3232  49.6551  1.00271248  6361
SES-11 (ECHOSTAR 105)   
1 42967U 17063A   26062.15392248 -.00000105  00000+0  00000+0 0  9990
2 42967   0.0335  70.1776 0002939 267.0898 134.1097  1.00272041 30669
SES-14                  
1 43175U 18012B   26062.12058737 -.00000294  00000+0  00000+0 0  9995
2 43175   0.0153  75.5076 0001066 263.3991 177.8818  1.00270809  5964
O3B FM15                
1 43231U 18024A   26061.15137011 -.00000029  00000+0  00000+0 0  9992
2 43231   0.0483   0.6162 0002685 337.4441  21.9208  5.00115540145678
O3B FM16                
1 43232U 18024B   26059.80451050 -.00000028  00000+0  00000+0 0  9993
2 43232   0.0446   2.3185 0002785 333.1821  24.4786  5.00115846145520
O3B FM14                
1 43233U 18024C   26062.04405897 -.00000028  00000+0  00000+0 0  9992
2 43233   0.0433   1.3587 0002847 340.9776  17.6466  5.00115627145634
O3B FM13                
1 43234U 18024D   26062.10991137 -.00000028  00000+0  00000+0 0  9997
2 43234   0.0485 331.6373 0004295 331.6147  56.6997  5.00115687145742
SES-12                  
1 43488U 18049A   26062.10612001  .00000000  00000+0  00000+0 0  9994
2 43488   0.0207 117.9395 0002141 182.5191 353.6349  1.00267964 28354
O3B FM20                
1 44112U 19020A   26061.87018883 -.00000029  00000+0  00000+0 0  9992
2 44112   0.0516 359.6601 0002817 330.2863  30.0302  5.00115471126257
O3B FM19                
1 44113U 19020B   26058.89895873 -.00000027  00000+0  00000+0 0  9991
2 44113   0.0602 347.5601 0004795 353.9797  18.4356  5.00116325125971
O3B FM17                
1 44114U 19020C   26061.97736535 -.00000029  00000+0  00000+0 0  9996
2 44114   0.0396 339.6948 0002693 356.6907  23.5949  5.00115418126211
O3B FM18                
1 44115U 19020D   26061.92365734 -.00000028  00000+0  00000+0 0  9990
2 44115   0.0519   0.0822 0002751 341.0608  18.8396  5.00115232126330
SES-17                  
1 49332U 21095A   26062.13725227 -.00000288  00000+0  00000+0 0  9990
2 49332   0.0247  65.5808 0001037 275.1453 162.4693  1.00269860 16792
SES-22                  
1 52933U 22071A   26062.13108014  .00000089  00000+0  00000+0 0  9993
2 52933   0.0184 233.6766 0001043 100.3289  95.0807  1.00274571  6452
SES-20                  
1 53960U 22123A   26062.15392248 -.00000116  00000+0  00000+0 0  9990
2 53960   0.0142 107.6675 0001354 316.6571  48.8816  1.00270541 12475
SES-21                  
1 53961U 22123B   26062.15947694  .00000054  00000+0  00000+0 0  9992
2 53961   0.0277  64.1006 0000991 277.6436 105.5920  1.00271093  6149
O3B MPOWER F1           
1 54755U 22174A   26058.53300325 -.00000026  00000+0  00000+0 0  9991
2 54755   0.0641 351.4493 0005158   3.4086 238.9684  5.00103025 59873
O3B MPOWER F2           
1 54756U 22174B   26048.35866194 -.00000015  00000+0  00000+0 0  9990
2 54756   0.0642 348.2682 0001560 220.5550 151.1634  5.00731386 59441
SES-18                  
1 55970U 23038A   26062.15392248 -.00000117  00000+0  00000+0 0  9990
2 55970   0.0628 273.3450 0002520  32.9942 166.8767  1.00272158 11049
SES-19                  
1 55971U 23038B   26062.15392248  .00000072  00000+0  00000+0 0  9990
2 55971   0.0559 286.8262 0001760  48.6471 105.9414  1.00271853 11010
O3B MPOWER F4           
1 56367U 23059A   26048.24074746 -.00000015  00000+0  00000+0 0  9995
2 56367   0.0593   7.9241 0006460 334.3658  17.6828  5.00119607 52601
O3B MPOWER F5           
1 58346U 23175A   26061.96660760 -.00000028  00000+0  00000+0 0  9998
2 58346   0.0397   2.3979 0004135 344.1324  13.4515  5.00115735 44128
ASTRA 1P (SES-24)       
1 60086U 24115A   26062.05253104  .00000104  00000+0  00000+0 0  9992
2 60086   0.0589 336.9567 0005173 347.1097 234.8480  1.00270725  6133
O3B MPOWER F7           
1 62362U 24244A   26059.53491027 -.00000028  00000+0  00000+0 0  9997
2 62362   0.0693   5.4961 0006142 333.0934  21.3774  5.00115153 21099
O3B MPOWER F8           
1 62363U 24244B   26062.10047596 -.00000028  00000+0  00000+0 0  9993
2 62363   0.0526 316.7446 0006663  17.0126  26.2018  5.00115765 15559
